NORAD_CAT_ID,OBJECT_NAME,OBJECT_TYPE,EPOCH,MEAN_MOTION,ECCENTRICITY,INCLINATION,RA_OF_ASC_NODE,ARG_OF_PERICENTER,MEAN_ANOMALY,BSTAR,MEAN_MOTION_DOT,MEAN_MOTION_DDOT,TLE_LINE0,TLE_LINE1,TLE_LINE2,SEMIMAJOR_AXIS,PERIOD,APOGEE,PERIGEE,DECAYED
52574.0,STARLINK-3901,PAYLOAD,2024-07-07 10:14:10,15.08838323,0.0001657,53.2165,338.6983,93.8068,266.3113,0.00056266,8.678e-05,0.0,0 STARLINK-3901,1 52574U 22051AQ  24189.42651528  .00008678  00000-0  56266-3 0  9997,2 52574  53.2165 338.6983 0001657  93.8068 266.3113 15.08838323119453,6917.886,95.438,540.897,538.604,0.0
52574.0,STARLINK-3901,PAYLOAD,2024-07-07 19:46:29,15.08843008,0.0001482,53.2193,336.9144,96.343,263.7731,0.00044526,6.806e-05,0.0,0 STARLINK-3901,1 52574U 22051AQ  24189.82395424  .00006806  00000-0  44526-3 0  9998,2 52574  53.2193 336.9144 0001482  96.3430 263.7731 15.08843008119588,6917.871,95.437,540.761,538.711,0.0
52574.0,STARLINK-3901,PAYLOAD,2024-07-08 13:15:44,15.08841761,0.0001374,53.2171,333.6419,122.3714,237.7411,0.00020484,2.974e-05,0.0,0 STARLINK-3901,1 52574U 22051AQ  24190.55259298  .00002974  00000-0  20484-3 0  9997,2 52574  53.2171 333.6419 0001374 122.3714 237.7411 15.08841761119623,6917.875,95.437,540.691,538.789,0.0
52574.0,STARLINK-3901,PAYLOAD,2024-07-08 16:26:30,15.08840355,0.0001147,53.2182,333.0512,95.2443,264.868,0.00020318,2.947e-05,0.0,0 STARLINK-3901,1 52574U 22051AQ  24190.68507498  .00002947  00000-0  20318-3 0  9995,2 52574  53.2182 333.0512 0001147  95.2443 264.8680 15.08840355119715,6917.879,95.438,540.538,538.951,0.0
52574.0,STARLINK-3901,PAYLOAD,2024-07-09 01:58:48,15.08855824,0.0001165,53.2187,331.2642,90.6458,269.4667,0.00038345,5.823e-05,0.0,0 STARLINK-3901,1 52574U 22051AQ  24191.08250733  .00005823  00000-0  38345-3 0  9992,2 52574  53.2187 331.2642 0001165  90.6458 269.4667 15.08855824119778,6917.832,95.437,540.503,538.891,0.0
52574.0,STARLINK-3901,PAYLOAD,2024-07-09 13:06:31,15.08832149,0.0001299,53.2185,329.1828,97.9799,262.134,-8.9189e-05,-1.707e-05,0.0,0 STARLINK-3901,1 52574U 22051AQ  24191.54619654 -.00001707  00000-0 -89189-4 0  9996,2 52574  53.2185 329.1828 0001299  97.9799 262.1340 15.08832149119845,6917.904,95.438,540.668,538.871,0.0
52574.0,STARLINK-3901,PAYLOAD,2024-07-09 14:41:54,15.08833411,0.0001352,53.2184,328.8853,98.8857,261.2288,-6.493e-05,-1.321e-05,0.0,0 STARLINK-3901,1 52574U 22051AQ  24191.61243625 -.00001321  00000-0 -64930-4 0  9994,2 52574  53.2184 328.8853 0001352  98.8857 261.2288 15.08833411119780,6917.901,95.438,540.701,538.83,0.0
52574.0,STARLINK-3901,PAYLOAD,2024-07-09 16:17:17,15.08835251,0.000132,53.2185,328.5884,89.3231,270.7912,-6.2618e-05,-1.284e-05,0.0,0 STARLINK-3901,1 52574U 22051AQ  24191.67867597 -.00001284  00000-0 -62618-4 0  9999,2 52574  53.2185 328.5884 0001320  89.3231 270.7912 15.08835251119792,6917.895,95.438,540.673,538.847,0.0
52574.0,STARLINK-3901,PAYLOAD,2024-07-10 01:49:35,15.08847746,0.0001249,53.2187,326.8056,87.6606,272.4529,0.00019247,2.777e-05,0.0,0 STARLINK-3901,1 52574U 22051AQ  24192.07611100  .00002777  00000-0  19247-3 0  9996,2 52574  53.2187 326.8056 0001249  87.6606 272.4529 15.08847746119923,6917.857,95.437,540.586,538.858,0.0
52574.0,STARLINK-3901,PAYLOAD,2024-07-10 08:11:08,15.08846283,0.0001147,53.2195,325.6222,98.3904,261.7218,0.00020754,3.017e-05,0.0,0 STARLINK-3901,1 52574U 22051AQ  24192.34107215  .00003017  00000-0  20754-3 0  9996,2 52574  53.2195 325.6222 0001147  98.3904 261.7218 15.08846283119898,6917.861,95.437,540.52,538.933,0.0
52574.0,STARLINK-3901,PAYLOAD,2024-07-11 14:23:28,15.08840119,0.0001221,53.2184,319.9724,106.1472,253.9654,0.00010484,1.381e-05,0.0,0 STARLINK-3901,1 52574U 22051AQ  24193.59963588  .00001381  00000-0  10484-3 0  9998,2 52574  53.2184 319.9724 0001221 106.1472 253.9654 15.08840119120082,6917.88,95.438,540.59,538.9,0.0
52574.0,STARLINK-3901,PAYLOAD,2024-07-12 01:31:10,15.08854274,0.0001217,53.2171,317.887,82.2201,277.8929,0.0003457,5.22e-05,0.0,0 STARLINK-3901,1 52574U 22051AQ  24194.06331039  .00005220  00000-0  34570-3 0  9999,2 52574  53.2171 317.8870 0001217  82.2201 277.8929 15.08854274120229,6917.837,95.437,540.544,538.86,0.0
52574.0,STARLINK-3901,PAYLOAD,2024-07-12 14:14:15,15.08832518,0.0001124,53.2157,315.5084,87.1144,272.9977,-2.447e-05,-6.77e-06,0.0,0 STARLINK-3901,1 52574U 22051AQ  24194.59324026 -.00000677  00000-0 -24470-4 0  9997,2 52574  53.2157 315.5084 0001124  87.1144 272.9977 15.08832518120307,6917.903,95.438,540.546,538.991,0.0
52574.0,STARLINK-3901,PAYLOAD,2024-07-12 15:49:38,15.08837857,0.0001201,53.2161,315.2107,87.1733,272.9396,7.9265e-05,9.74e-06,0.0,0 STARLINK-3901,1 52574U 22051AQ  24194.65947886  .00000974  00000-0  79265-4 0  9999,2 52574  53.2161 315.2107 0001201  87.1733 272.9396 15.08837857120244,6917.887,95.438,540.583,538.921,0.0
52574.0,STARLINK-3901,PAYLOAD,2024-07-13 01:21:57,15.088494,0.0001282,53.2164,313.4264,85.689,274.4248,0.00038654,5.871e-05,0.0,0 STARLINK-3901,1 52574U 22051AQ  24195.05691537  .00005871  00000-0  38654-3 0  9990,2 52574  53.2164 313.4264 0001282  85.6890 274.4248 15.08849400120371,6917.852,95.437,540.604,538.83,0.0
52574.0,STARLINK-3901,PAYLOAD,2024-07-13 14:05:02,15.08838682,0.0001177,53.216,311.0474,91.4016,268.7111,0.00028818,4.301e-05,0.0,0 STARLINK-3901,1 52574U 22051AQ  24195.58684023  .00004301  00000-0  28818-3 0  9998,2 52574  53.2160 311.0474 0001177  91.4016 268.7111 15.08838682120456,6917.884,95.438,540.564,538.935,0.0
52574.0,STARLINK-3901,PAYLOAD,2024-07-14 01:12:44,15.0885714,0.0001351,53.2173,308.9649,97.583,262.5316,0.00085964,0.00013426,0.0,0 STARLINK-3901,1 52574U 22051AQ  24196.05051735  .00013426  00000-0  85964-3 0  9992,2 52574  53.2173 308.9649 0001351  97.5830 262.5316 15.08857140120521,6917.828,95.436,540.628,538.758,0.0
52574.0,STARLINK-3901,PAYLOAD,2024-07-14 13:55:49,15.08849269,0.0001225,53.2166,306.5871,103.5813,256.5316,0.0016548,0.00026153,0.0,0 STARLINK-3901,1 52574U 22051AQ  24196.58043881  .00026153  00000-0  16548-2 0  9995,2 52574  53.2166 306.5871 0001225 103.5813 256.5316 15.08849269120608,6917.852,95.437,540.564,538.87,0.0
52574.0,STARLINK-3901,PAYLOAD,2024-07-15 13:46:36,15.08840863,0.0001342,53.2166,302.1257,83.4179,276.6966,0.0014477,0.00022828,0.0,0 STARLINK-3901,1 52574U 22051AQ  24197.57403877  .00022828  00000-0  14477-2 0  9994,2 52574  53.2166 302.1257 0001342  83.4179 276.6966 15.08840863120750,6917.878,95.438,540.671,538.814,0.0
52574.0,STARLINK-3901,PAYLOAD,2024-07-16 13:37:24,15.08841865,0.0001367,53.2164,297.6616,82.7297,277.385,0.00026629,3.953e-05,0.0,0 STARLINK-3901,1 52574U 22051AQ  24198.56763958  .00003953  00000-0  26629-3 0  9994,2 52574  53.2164 297.6616 0001367  82.7297 277.3850 15.08841865120837,6917.875,95.437,540.685,538.794,0.0
52574.0,STARLINK-3901,PAYLOAD,2024-07-17 13:28:11,15.08831873,0.0001405,53.2168,293.2065,95.0126,265.1027,1.6396e-05,-2.7e-07,0.0,0 STARLINK-3901,1 52574U 22051AQ  24199.56124600 -.00000027  00000-0  16396-4 0  9991,2 52574  53.2168 293.2065 0001405  95.0126 265.1027 15.08831873121056,6917.905,95.438,540.742,538.798,0.0
52574.0,STARLINK-3901,PAYLOAD,2024-07-18 13:18:58,15.08837168,0.0001347,53.2155,288.744,67.7557,292.3578,0.00010664,1.41e-05,0.0,0 STARLINK-3901,1 52574U 22051AQ  24200.55484838  .00001410  00000-0  10664-3 0  9992,2 52574  53.2155 288.7440 0001347  67.7557 292.3578 15.08837168121132,6917.889,95.438,540.686,538.822,0.0
52574.0,STARLINK-3901,PAYLOAD,2024-07-19 13:09:45,15.08842129,0.000158,53.2175,284.2812,63.5687,296.5467,0.00012732,1.739e-05,0.0,0 STARLINK-3901,1 52574U 22051AQ  24201.54844882  .00001739  00000-0  12732-3 0  9993,2 52574  53.2175 284.2812 0001580  63.5687 296.5467 15.08842129121355,6917.874,95.437,540.832,538.646,0.0
52574.0,STARLINK-3901,PAYLOAD,2024-07-20 05:03:37,15.08834123,0.0001608,53.2159,281.3116,88.1905,271.9271,9.3597e-05,1.202e-05,0.0,0 STARLINK-3901,1 52574U 22051AQ  24202.21085393  .00001202  00000-0  93597-4 0  9996,2 52574  53.2159 281.3116 0001608  88.1905 271.9271 15.08834123121455,6917.898,95.438,540.876,538.651,0.0
52574.0,STARLINK-3901,PAYLOAD,2024-07-20 11:25:10,15.08832593,0.0001118,53.215,280.1226,88.4407,271.6714,4.4814e-05,4.25e-06,0.0,0 STARLINK-3901,1 52574U 22051AQ  24202.47581190  .00000425  00000-0  44814-4 0  9994,2 52574  53.2150 280.1226 0001118  88.4407 271.6714 15.08832593121426,6917.903,95.438,540.541,538.995,0.0
52574.0,STARLINK-3901,PAYLOAD,2024-07-20 22:32:51,15.08851415,0.0001086,53.216,278.0366,97.4598,262.6517,0.00022442,3.287e-05,0.0,0 STARLINK-3901,1 52574U 22051AQ  24202.93948099  .00003287  00000-0  22442-3 0  9991,2 52574  53.2160 278.0366 0001086  97.4598 262.6517 15.08851415121495,6917.845,95.437,540.462,538.959,0.0
52574.0,STARLINK-3901,PAYLOAD,2024-07-21 11:15:56,15.08844578,0.0001508,53.2168,275.6587,104.9573,255.1587,1.7376e-05,-1.1e-07,0.0,0 STARLINK-3901,1 52574U 22051AQ  24203.46940491 -.00000011  00000-0  17376-4 0  9992,2 52574  53.2168 275.6587 0001508 104.9573 255.1587 15.08844578121640,6917.866,95.437,540.775,538.688,0.0
52574.0,STARLINK-3901,PAYLOAD,2024-07-22 09:31:20,15.08834741,0.0001298,53.2165,271.4913,118.7971,241.3151,0.00027184,4.04e-05,0.0,0 STARLINK-3901,1 52574U 22051AQ  24204.39676935  .00004040  00000-0  27184-3 0  9996,2 52574  53.2165 271.4913 0001298 118.7971 241.3151 15.08834741121785,6917.896,95.438,540.659,538.864,0.0
52574.0,STARLINK-3901,PAYLOAD,2024-07-23 10:57:31,15.08832948,0.0001458,53.2167,266.7393,82.8371,277.2787,7.9904e-05,9.84e-06,0.0,0 STARLINK-3901,1 52574U 22051AQ  24205.45661483  .00000984  00000-0  79904-4 0  9997,2 52574  53.2167 266.7393 0001458  82.8371 277.2787 15.08832948121947,6917.902,95.438,540.776,538.758,0.0
52574.0,STARLINK-3901,PAYLOAD,2024-07-24 09:12:56,15.08821882,0.0001286,53.2156,262.5714,84.3644,275.7495,-3.6388e-05,-8.67e-06,0.0,0 STARLINK-3901,1 52574U 22051AQ  24206.38398636 -.00000867  00000-0 -36388-4 0  9998,2 52574  53.2156 262.5714 0001286  84.3644 275.7495 15.08821882122085,6917.936,95.439,540.69,538.911,0.0
